NORAD_CAT_ID,OBJECT_NAME,OBJECT_TYPE,EPOCH,MEAN_MOTION,ECCENTRICITY,INCLINATION,RA_OF_ASC_NODE,ARG_OF_PERICENTER,MEAN_ANOMALY,BSTAR,MEAN_MOTION_DOT,MEAN_MOTION_DDOT,TLE_LINE0,TLE_LINE1,TLE_LINE2,SEMIMAJOR_AXIS,PERIOD,APOGEE,PERIGEE,DECAYED
53974.0,STARLINK-5159,PAYLOAD,2023-10-10 19:07:12,15.08834136,0.0001307,53.2172,198.2062,97.6649,262.4492,-6.4858e-05,-1.32e-05,0.0,0 STARLINK-5159,1 53974U 22125L   23283.79667113 -.00001320  00000-0 -64858-4 0  9991,2 53974  53.2172 198.2062 0001307  97.6649 262.4492 15.08834136 56694,6917.898,95.438,540.667,538.859,0.0
53974.0,STARLINK-5159,PAYLOAD,2023-10-10 22:17:58,15.08832232,0.0001134,53.2178,197.6107,90.6222,269.49,-9.5072e-05,-1.8e-05,0.0,0 STARLINK-5159,1 53974U 22125L   23283.92915249 -.00001800  00000-0 -95072-4 0  9997,2 53974  53.2178 197.6107 0001134  90.6222 269.4900 15.08832232 56642,6917.904,95.438,540.554,538.985,0.0
53974.0,STARLINK-5159,PAYLOAD,2023-10-11 03:04:07,15.08848537,0.000115,53.2173,196.7161,118.4525,241.6583,0.00011518,1.546e-05,0.0,0 STARLINK-5159,1 53974U 22125L   23284.12786086  .00001546  00000-0  11518-3 0  9992,2 53974  53.2173 196.7161 0001150 118.4525 241.6583 15.08848537 56745,6917.854,95.437,540.515,538.924,0.0
53974.0,STARLINK-5159,PAYLOAD,2023-10-11 11:01:03,15.08843314,0.0001145,53.2172,195.2313,93.6675,266.4449,2.9298e-05,1.79e-06,0.0,0 STARLINK-5159,1 53974U 22125L   23284.45906521  .00000179  00000-0  29298-4 0  9992,2 53974  53.2172 195.2313 0001145  93.6675 266.4449 15.08843314 56790,6917.87,95.437,540.527,538.943,0.0
53974.0,STARLINK-5159,PAYLOAD,2023-10-12 04:30:18,15.0884128,0.0001232,53.217,191.9611,95.7935,264.3197,0.00015575,2.192e-05,0.0,0 STARLINK-5159,1 53974U 22125L   23285.18771183  .00002192  00000-0  15575-3 0  9996,2 53974  53.2170 191.9611 0001232  95.7935 264.3197 15.08841280 56901,6917.876,95.437,540.594,538.889,0.0
53974.0,STARLINK-5159,PAYLOAD,2023-10-12 10:51:51,15.08841167,0.0001156,53.2171,190.7719,93.6691,266.4434,8.5504e-05,1.073e-05,0.0,0 STARLINK-5159,1 53974U 22125L   23285.45267363  .00001073  00000-0  85504-4 0  9993,2 53974  53.2171 190.7719 0001156  93.6691 266.4434 15.08841167 56876,6917.877,95.437,540.542,538.942,0.0
53974.0,STARLINK-5159,PAYLOAD,2023-10-12 21:59:33,15.08835326,0.0001125,53.2171,188.6904,82.721,277.391,0.00017117,2.437e-05,0.0,0 STARLINK-5159,1 53974U 22125L   23285.91635740  .00002437  00000-0  17117-3 0  9991,2 53974  53.2171 188.6904 0001125  82.7210 277.3910 15.08835326 56948,6917.895,95.438,540.538,538.981,0.0
53974.0,STARLINK-5159,PAYLOAD,2023-10-13 10:42:38,15.08846172,0.0001307,53.2173,186.3116,80.1896,279.9244,3.2761e-05,2.34e-06,0.0,0 STARLINK-5159,1 53974U 22125L   23286.44627332  .00000234  00000-0  32761-4 0  9994,2 53974  53.2173 186.3116 0001307  80.1896 279.9244 15.08846172 57090,6917.862,95.437,540.631,538.822,0.0
53974.0,STARLINK-5159,PAYLOAD,2023-10-13 21:50:20,15.08840104,0.0001532,53.2168,184.229,76.5674,283.5489,0.00017235,2.456e-05,0.0,0 STARLINK-5159,1 53974U 22125L   23286.90995492  .00002456  00000-0  17235-3 0  9996,2 53974  53.2168 184.2290 0001532  76.5674 283.5489 15.08840104 57098,6917.88,95.438,540.805,538.685,0.0
53974.0,STARLINK-5159,PAYLOAD,2023-10-14 02:36:28,15.08863024,0.0001296,53.2171,183.3379,76.3796,283.734,0.00020188,2.928e-05,0.0,0 STARLINK-5159,1 53974U 22125L   23287.10865846  .00002928  00000-0  20188-3 0  9993,2 53974  53.2171 183.3379 0001296  76.3796 283.7340 15.08863024 57195,6917.81,95.436,540.572,538.778,0.0
53974.0,STARLINK-5159,PAYLOAD,2023-10-14 10:33:25,15.08840982,0.0001495,53.2169,181.8512,84.6511,275.4652,3.5356e-06,-2.32e-06,0.0,0 STARLINK-5159,1 53974U 22125L   23287.43987635 -.00000232  00000-0  35356-5 0  9992,2 53974  53.2169 181.8512 0001495  84.6511 275.4652 15.08840982 57240,6917.877,95.437,540.777,538.708,0.0
53974.0,STARLINK-5159,PAYLOAD,2023-10-14 21:41:07,15.08832741,0.000133,53.218,179.7681,96.5611,263.5533,-3.2433e-05,-8.04e-06,0.0,0 STARLINK-5159,1 53974U 22125L   23287.90356273 -.00000804  00000-0 -32433-4 0  9990,2 53974  53.2180 179.7681 0001330  96.5611 263.5533 15.08832741 57247,6917.903,95.438,540.688,538.847,0.0
53974.0,STARLINK-5159,PAYLOAD,2023-10-15 10:24:12,15.08835649,0.0001641,53.2175,177.3878,78.6022,281.5154,-3.5149e-05,-8.47e-06,0.0,0 STARLINK-5159,1 53974U 22125L   23288.43348213 -.00000847  00000-0 -35149-4 0  9998,2 53974  53.2175 177.3878 0001641  78.6022 281.5154 15.08835649 57390,6917.894,95.438,540.894,538.623,0.0
53974.0,STARLINK-5159,PAYLOAD,2023-10-15 21:31:54,15.08839323,0.0001238,53.2167,175.3094,84.0378,276.0755,5.0156e-05,5.1e-06,0.0,0 STARLINK-5159,1 53974U 22125L   23288.89715812  .00000510  00000-0  50156-4 0  9991,2 53974  53.2167 175.3094 0001238  84.0378 276.0755 15.08839323 57395,6917.882,95.438,540.604,538.891,0.0
53974.0,STARLINK-5159,PAYLOAD,2023-10-15 23:07:17,15.0883935,0.0001121,53.2162,175.0116,82.4316,277.6804,6.7962e-05,7.94e-06,0.0,0 STARLINK-5159,1 53974U 22125L   23288.96339746  .00000794  00000-0  67962-4 0  9994,2 53974  53.2162 175.0116 0001121  82.4316 277.6804 15.08839350 57478,6917.882,95.438,540.523,538.972,0.0
53974.0,STARLINK-5159,PAYLOAD,2023-10-16 16:36:32,15.08835698,0.000131,53.2174,171.7403,95.9059,264.2082,0.00017595,2.513e-05,0.0,0 STARLINK-5159,1 53974U 22125L   23289.69203705  .00002513  00000-0  17595-3 0  9997,2 53974  53.2174 171.7403 0001310  95.9059 264.2082 15.08835698 57512,6917.894,95.438,540.665,538.852,0.0
53974.0,STARLINK-5159,PAYLOAD,2023-10-17 22:48:51,15.08842045,0.0002187,53.2166,166.0898,93.2539,266.8703,9.0038e-05,1.145e-05,0.0,0 STARLINK-5159,1 53974U 22125L   23290.95059723  .00001145  00000-0  90038-4 0  9991,2 53974  53.2166 166.0898 0002187  93.2539 266.8703 15.08842045 57775,6917.874,95.437,541.252,538.226,0.0
53974.0,STARLINK-5159,PAYLOAD,2023-10-18 08:21:10,15.08837941,0.0001546,53.2155,164.3044,84.3352,275.7816,-1.6009e-05,-5.43e-06,0.0,0 STARLINK-5159,1 53974U 22125L   23291.34804180 -.00000543  00000-0 -16009-4 0  9999,2 53974  53.2155 164.3044 0001546  84.3352 275.7816 15.08837941 57839,6917.887,95.438,540.821,538.682,0.0
53974.0,STARLINK-5159,PAYLOAD,2023-10-18 22:39:38,15.08847686,0.0001612,53.2136,161.6311,94.8598,265.2578,5.2134e-05,5.42e-06,0.0,0 STARLINK-5159,1 53974U 22125L   23291.94419332  .00000542  00000-0  52134-4 0  9992,2 53974  53.2136 161.6311 0001612  94.8598 265.2578 15.08847686 57855,6917.857,95.437,540.837,538.607,0.0
53974.0,STARLINK-5159,PAYLOAD,2023-10-19 22:30:25,15.08839088,0.0001553,53.2177,157.1704,90.8087,269.3084,0.00014794,2.067e-05,0.0,0 STARLINK-5159,1 53974U 22125L   23292.93779385  .00002067  00000-0  14794-3 0  9992,2 53974  53.2177 157.1704 0001553  90.8087 269.3084 15.08839088 58001,6917.883,95.438,540.823,538.674,0.0
53974.0,STARLINK-5159,PAYLOAD,2023-10-20 00:05:48,15.08843959,0.0001441,53.2169,156.8702,76.1522,283.963,0.00011806,1.592e-05,0.0,0 STARLINK-5159,1 53974U 22125L   23293.00403193  .00001592  00000-0  11806-3 0  9995,2 53974  53.2169 156.8702 0001441  76.1522 283.9630 15.08843959 58082,6917.868,95.437,540.73,538.736,0.0
53974.0,STARLINK-5159,PAYLOAD,2023-10-20 17:35:04,15.08831147,0.0001501,53.2181,153.6016,98.9986,261.1176,-8.8993e-05,-1.704e-05,0.0,0 STARLINK-5159,1 53974U 22125L   23293.73268813 -.00001704  00000-0 -88993-4 0  9992,2 53974  53.2181 153.6016 0001501  98.9986 261.1176 15.08831147 58193,6917.907,95.438,540.811,538.734,0.0
53974.0,STARLINK-5159,PAYLOAD,2023-10-20 22:21:13,15.08832417,0.0001311,53.2168,152.7099,85.2456,274.8686,-6.7365e-05,-1.36e-05,0.0,0 STARLINK-5159,1 53974U 22125L   23293.93140924 -.00001360  00000-0 -67365-4 0  9994,2 53974  53.2168 152.7099 0001311  85.2456 274.8686 15.08832417 58153,6917.904,95.438,540.676,538.862,0.0
53974.0,STARLINK-5159,PAYLOAD,2023-10-21 07:53:31,15.08840169,0.0001225,53.2169,150.9251,90.5372,269.576,2.8087e-05,1.59e-06,0.0,0 STARLINK-5159,1 53974U 22125L   23294.32884240  .00000159  00000-0  28087-4 0  9995,2 53974  53.2169 150.9251 0001225  90.5372 269.5760 15.08840169 58285,6917.88,95.438,540.592,538.897,0.0
53974.0,STARLINK-5159,PAYLOAD,2023-10-21 19:01:13,15.08854986,0.0001286,53.2172,148.8468,78.9753,281.1384,1.156e-05,-1.04e-06,0.0,0 STARLINK-5159,1 53974U 22125L   23294.79251290 -.00000104  00000-0  11560-4 0  9998,2 53974  53.2172 148.8468 0001286  78.9753 281.1384 15.08854986 58357,6917.835,95.437,540.589,538.81,0.0
53974.0,STARLINK-5159,PAYLOAD,2023-10-21 20:36:36,15.08850791,0.0001072,53.2183,148.5466,83.8106,276.3009,2.2272e-05,6.7e-07,0.0,0 STARLINK-5159,1 53974U 22125L   23294.85875359  .00000067  00000-0  22272-4 0  9992,2 53974  53.2183 148.5466 0001072  83.8106 276.3009 15.08850791 58297,6917.847,95.437,540.454,538.971,0.0
53974.0,STARLINK-5159,PAYLOAD,2023-10-21 23:47:21,15.08860955,0.0001456,53.2182,147.9504,93.6731,266.4427,9.7625e-05,1.267e-05,0.0,0 STARLINK-5159,1 53974U 22125L   23294.99122410  .00001267  00000-0  97625-4 0  9997,2 53974  53.2182 147.9504 0001456  93.6731 266.4427 15.08860955 58388,6917.816,95.436,540.689,538.674,0.0
53974.0,STARLINK-5159,PAYLOAD,2023-10-22 07:44:19,15.08837021,0.0001976,53.2181,146.4638,82.4387,277.683,-3.8888e-05,-9.07e-06,0.0,0 STARLINK-5159,1 53974U 22125L   23295.32244454 -.00000907  00000-0 -38888-4 0  9996,2 53974  53.2181 146.4638 0001976  82.4387 277.6830 15.08837021 58435,6917.889,95.438,541.121,538.388,0.0
53974.0,STARLINK-5159,PAYLOAD,2023-10-22 18:52:01,15.08829182,0.0001996,53.2169,144.3824,88.8801,271.242,6.593e-05,7.61e-06,0.0,0 STARLINK-5159,1 53974U 22125L   23295.78613150  .00000761  00000-0  65930-4 0  9993,2 53974  53.2169 144.3824 0001996  88.8801 271.2420 15.08829182 58500,6917.913,95.438,541.159,538.398,0.0
53974.0,STARLINK-5159,PAYLOAD,2023-10-22 20:27:24,15.08827526,0.0001513,53.2173,144.0847,93.4989,266.6177,5.4232e-05,5.75e-06,0.0,0 STARLINK-5159,1 53974U 22125L   23295.85237260  .00000575  00000-0  54232-4 0  9991,2 53974  53.2173 144.0847 0001513  93.4989 266.6177 15.08827526 58441,6917.919,95.438,540.83,538.737,0.0
